[{"OBJECT_NAME":"STARLINK-31863","OBJECT_ID":"2024-093H","EPOCH":"2026-03-09T11:03:00.877248","MEAN_MOTION":15.27574977,"ECCENTRICITY":0.00012195,"INCLINATION":43.0004,"RA_OF_ASC_NODE":209.9087,"ARG_OF_PERICENTER":266.9233,"MEAN_ANOMALY":93.1479,"EPHEMERIS_TYPE":0,"CLASSIFICATION_TYPE":"U","NORAD_CAT_ID":59789,"ELEMENT_SET_NO":999,"REV_AT_EPOCH":10266,"BSTAR":4.3257633e-5,"MEAN_MOTION_DOT":9.28e-6,"MEAN_MOTION_DDOT":0},{"OBJECT_NAME":"FLOCK 4G-18","OBJECT_ID":"2025-009BZ","EPOCH":"2026-03-09T04:35:14.656704","MEAN_MOTION":15.27241676,"ECCENTRICITY":0.00041001,"INCLINATION":97.4054,"RA_OF_ASC_NODE":150.5008,"ARG_OF_PERICENTER":335.7331,"MEAN_ANOMALY":24.3715,"EPHEMERIS_TYPE":0,"CLASSIFICATION_TYPE":"U","NORAD_CAT_ID":62680,"ELEMENT_SET_NO":999,"REV_AT_EPOCH":12126,"BSTAR":0.0004431856,"MEAN_MOTION_DOT":0.00011766,"MEAN_MOTION_DDOT":0}]
